[{"OBJECT_NAME":"STARLINK-34693","OBJECT_ID":"2025-150D","EPOCH":"2026-03-09T13:35:23.471232","MEAN_MOTION":14.98331008,"ECCENTRICITY":0.0004041,"INCLINATION":70.0011,"RA_OF_ASC_NODE":134.9527,"ARG_OF_PERICENTER":272.5414,"MEAN_ANOMALY":87.5283,"EPHEMERIS_TYPE":0,"CLASSIFICATION_TYPE":"U","NORAD_CAT_ID":64793,"ELEMENT_SET_NO":999,"REV_AT_EPOCH":3649,"BSTAR":0.00037361,"MEAN_MOTION_DOT":4.368e-5,"MEAN_MOTION_DDOT":0},{"OBJECT_NAME":"SL-12 DEB","OBJECT_ID":"2010-041AF","EPOCH":"2026-03-09T03:16:54.337728","MEAN_MOTION":4.57463421,"ECCENTRICITY":0.54745162,"INCLINATION":65.3042,"RA_OF_ASC_NODE":69.422,"ARG_OF_PERICENTER":272.5094,"MEAN_ANOMALY":29.1738,"EPHEMERIS_TYPE":0,"CLASSIFICATION_TYPE":"U","NORAD_CAT_ID":44560,"ELEMENT_SET_NO":999,"REV_AT_EPOCH":10610,"BSTAR":0.0021213978,"MEAN_MOTION_DOT":6.24e-6,"MEAN_MOTION_DDOT":0}]
